[{"OBJECT_NAME":"ONEWEB-0183","OBJECT_ID":"2021-031K","EPOCH":"2026-03-03T03:49:48.806688","MEAN_MOTION":13.14501408,"ECCENTRICITY":0.0001626,"INCLINATION":87.9,"RA_OF_ASC_NODE":310.8602,"ARG_OF_PERICENTER":71.8885,"MEAN_ANOMALY":288.2422,"EPHEMERIS_TYPE":0,"CLASSIFICATION_TYPE":"U","NORAD_CAT_ID":48219,"ELEMENT_SET_NO":999,"REV_AT_EPOCH":23439,"BSTAR":2.0264e-5,"MEAN_MOTION_DOT":2.0e-7,"MEAN_MOTION_DDOT":0},{"OBJECT_NAME":"ONEWEB-0185","OBJECT_ID":"2021-031L","EPOCH":"2026-03-03T02:37:52.197888","MEAN_MOTION":13.1450097,"ECCENTRICITY":0.000193,"INCLINATION":87.8998,"RA_OF_ASC_NODE":310.8557,"ARG_OF_PERICENTER":70.0135,"MEAN_ANOMALY":290.1202,"EPHEMERIS_TYPE":0,"CLASSIFICATION_TYPE":"U","NORAD_CAT_ID":48220,"ELEMENT_SET_NO":999,"REV_AT_EPOCH":23431,"BSTAR":-0.00031019,"MEAN_MOTION_DOT":-1.02e-6,"MEAN_MOTION_DDOT":0},{"OBJECT_NAME":"ONEWEB-0187","OBJECT_ID":"2021-031M","EPOCH":"2026-03-03T03:58:44.947200","MEAN_MOTION":13.14501394,"ECCENTRICITY":0.0001906,"INCLINATION":87.899,"RA_OF_ASC_NODE":310.8773,"ARG_OF_PERICENTER":77.0601,"MEAN_ANOMALY":283.0741,"EPHEMERIS_TYPE":0,"CLASSIFICATION_TYPE":"U","NORAD_CAT_ID":48221,"ELEMENT_SET_NO":999,"REV_AT_EPOCH":23433,"BSTAR":-0.00019623,"MEAN_MOTION_DOT":-6.0e-7,"MEAN_MOTION_DDOT":0},{"OBJECT_NAME":"ONEWEB-0192","OBJECT_ID":"2021-031N","EPOCH":"2026-03-03T03:15:33.880320","MEAN_MOTION":13.14501839,"ECCENTRICITY":0.0001694,"INCLINATION":87.8988,"RA_OF_ASC_NODE":310.8722,"ARG_OF_PERICENTER":83.3393,"MEAN_ANOMALY":276.7929,"EPHEMERIS_TYPE":0,"CLASSIFICATION_TYPE":"U","NORAD_CAT_ID":48222,"ELEMENT_SET_NO":999,"REV_AT_EPOCH":23424,"BSTAR":0.00082259,"MEAN_MOTION_DOT":3.18e-6,"MEAN_MOTION_DDOT":0},{"OBJECT_NAME":"ONEWEB-0219","OBJECT_ID":"2021-031P","EPOCH":"2026-03-03T02:45:52.746048","MEAN_MOTION":13.14502549,"ECCENTRICITY":0.0001865,"INCLINATION":87.9,"RA_OF_ASC_NODE":310.8606,"ARG_OF_PERICENTER":75.0041,"MEAN_ANOMALY":285.1296,"EPHEMERIS_TYPE":0,"CLASSIFICATION_TYPE":"U","NORAD_CAT_ID":48223,"ELEMENT_SET_NO":999,"REV_AT_EPOCH":23444,"BSTAR":2.8349e-5,"MEAN_MOTION_DOT":2.3e-7,"MEAN_MOTION_DDOT":0},{"OBJECT_NAME":"ONEWEB-0202","OBJECT_ID":"2021-031Q","EPOCH":"2026-03-03T02:18:29.215872","MEAN_MOTION":13.14504554,"ECCENTRICITY":0.0002167,"INCLINATION":87.8998,"RA_OF_ASC_NODE":310.8733,"ARG_OF_PERICENTER":95.6215,"MEAN_ANOMALY":264.5162,"EPHEMERIS_TYPE":0,"CLASSIFICATION_TYPE":"U","NORAD_CAT_ID":48224,"ELEMENT_SET_NO":999,"REV_AT_EPOCH":23442,"BSTAR":-0.00041115,"MEAN_MOTION_DOT":-1.4e-6,"MEAN_MOTION_DDOT":0},{"OBJECT_NAME":"ONEWEB-0204","OBJECT_ID":"2021-031R","EPOCH":"2026-03-03T03:07:34.596192","MEAN_MOTION":13.14502713,"ECCENTRICITY":0.0001614,"INCLINATION":87.9,"RA_OF_ASC_NODE":310.8604,"ARG_OF_PERICENTER":69.2427,"MEAN_ANOMALY":290.8876,"EPHEMERIS_TYPE":0,"CLASSIFICATION_TYPE":"U","NORAD_CAT_ID":48225,"ELEMENT_SET_NO":999,"REV_AT_EPOCH":23432,"BSTAR":0.00072508,"MEAN_MOTION_DOT":2.82e-6,"MEAN_MOTION_DDOT":0},{"OBJECT_NAME":"ONEWEB-0205","OBJECT_ID":"2021-031S","EPOCH":"2026-03-03T02:32:10.744224","MEAN_MOTION":13.14501915,"ECCENTRICITY":0.0001832,"INCLINATION":87.9001,"RA_OF_ASC_NODE":310.8577,"ARG_OF_PERICENTER":76.759,"MEAN_ANOMALY":283.3743,"EPHEMERIS_TYPE":0,"CLASSIFICATION_TYPE":"U","NORAD_CAT_ID":48226,"ELEMENT_SET_NO":999,"REV_AT_EPOCH":23433,"BSTAR":-0.00038058,"MEAN_MOTION_DOT":-1.28e-6,"MEAN_MOTION_DDOT":0},{"OBJECT_NAME":"ONEWEB-0206","OBJECT_ID":"2021-031T","EPOCH":"2026-03-03T03:42:58.360032","MEAN_MOTION":13.1450235,"ECCENTRICITY":0.0001447,"INCLINATION":87.901,"RA_OF_ASC_NODE":310.8473,"ARG_OF_PERICENTER":85.9924,"MEAN_ANOMALY":274.1371,"EPHEMERIS_TYPE":0,"CLASSIFICATION_TYPE":"U","NORAD_CAT_ID":48227,"ELEMENT_SET_NO":999,"REV_AT_EPOCH":23429,"BSTAR":0.00024188,"MEAN_MOTION_DOT":1.02e-6,"MEAN_MOTION_DDOT":0},{"OBJECT_NAME":"ONEWEB-0182","OBJECT_ID":"2021-031U","EPOCH":"2026-03-03T03:36:06.940512","MEAN_MOTION":13.14501339,"ECCENTRICITY":0.0001585,"INCLINATION":87.8997,"RA_OF_ASC_NODE":310.8619,"ARG_OF_PERICENTER":71.0724,"MEAN_ANOMALY":289.0577,"EPHEMERIS_TYPE":0,"CLASSIFICATION_TYPE":"U","NORAD_CAT_ID":48228,"ELEMENT_SET_NO":999,"REV_AT_EPOCH":23450,"BSTAR":0.00051677,"MEAN_MOTION_DOT":2.04e-6,"MEAN_MOTION_DDOT":0},{"OBJECT_NAME":"ONEWEB-0186","OBJECT_ID":"2021-031V","EPOCH":"2026-03-03T03:52:06.408192","MEAN_MOTION":13.14501984,"ECCENTRICITY":0.0001763,"INCLINATION":87.9003,"RA_OF_ASC_NODE":310.8465,"ARG_OF_PERICENTER":78.3309,"MEAN_ANOMALY":281.8018,"EPHEMERIS_TYPE":0,"CLASSIFICATION_TYPE":"U","NORAD_CAT_ID":48229,"ELEMENT_SET_NO":999,"REV_AT_EPOCH":23445,"BSTAR":-4.249e-5,"MEAN_MOTION_DOT":-3.0e-8,"MEAN_MOTION_DDOT":0},{"OBJECT_NAME":"ONEWEB-0181","OBJECT_ID":"2021-031W","EPOCH":"2026-03-03T03:20:07.951488","MEAN_MOTION":13.14501652,"ECCENTRICITY":0.0001833,"INCLINATION":87.8987,"RA_OF_ASC_NODE":310.8935,"ARG_OF_PERICENTER":81.0877,"MEAN_ANOMALY":279.046,"EPHEMERIS_TYPE":0,"CLASSIFICATION_TYPE":"U","NORAD_CAT_ID":48230,"ELEMENT_SET_NO":999,"REV_AT_EPOCH":23430,"BSTAR":0.00090067,"MEAN_MOTION_DOT":3.47e-6,"MEAN_MOTION_DDOT":0},{"OBJECT_NAME":"ONEWEB-0188","OBJECT_ID":"2021-031X","EPOCH":"2026-03-03T02:25:19.531200","MEAN_MOTION":13.14501465,"ECCENTRICITY":0.0001699,"INCLINATION":87.899,"RA_OF_ASC_NODE":310.8989,"ARG_OF_PERICENTER":78.1639,"MEAN_ANOMALY":281.9681,"EPHEMERIS_TYPE":0,"CLASSIFICATION_TYPE":"U","NORAD_CAT_ID":48231,"ELEMENT_SET_NO":999,"REV_AT_EPOCH":23420,"BSTAR":-0.00043215,"MEAN_MOTION_DOT":-1.47e-6,"MEAN_MOTION_DDOT":0},{"OBJECT_NAME":"ONEWEB-0220","OBJECT_ID":"2021-031Y","EPOCH":"2026-03-03T03:22:24.983616","MEAN_MOTION":13.14501178,"ECCENTRICITY":0.0001837,"INCLINATION":87.9004,"RA_OF_ASC_NODE":310.8497,"ARG_OF_PERICENTER":75.9945,"MEAN_ANOMALY":284.1389,"EPHEMERIS_TYPE":0,"CLASSIFICATION_TYPE":"U","NORAD_CAT_ID":48232,"ELEMENT_SET_NO":999,"REV_AT_EPOCH":23447,"BSTAR":0.00061031,"MEAN_MOTION_DOT":2.39e-6,"MEAN_MOTION_DDOT":0},{"OBJECT_NAME":"ONEWEB-0165","OBJECT_ID":"2021-031Z","EPOCH":"2026-03-03T04:03:30.923424","MEAN_MOTION":13.14501552,"ECCENTRICITY":0.000194,"INCLINATION":87.9,"RA_OF_ASC_NODE":310.8609,"ARG_OF_PERICENTER":86.4592,"MEAN_ANOMALY":273.6759,"EPHEMERIS_TYPE":0,"CLASSIFICATION_TYPE":"U","NORAD_CAT_ID":48233,"ELEMENT_SET_NO":999,"REV_AT_EPOCH":23443,"BSTAR":-0.00029063,"MEAN_MOTION_DOT":-9.5e-7,"MEAN_MOTION_DDOT":0},{"OBJECT_NAME":"ONEWEB-0199","OBJECT_ID":"2021-031AA","EPOCH":"2026-03-03T03:40:40.702368","MEAN_MOTION":13.14501453,"ECCENTRICITY":0.0001503,"INCLINATION":87.9001,"RA_OF_ASC_NODE":310.8457,"ARG_OF_PERICENTER":82.038,"MEAN_ANOMALY":278.092,"EPHEMERIS_TYPE":0,"CLASSIFICATION_TYPE":"U","NORAD_CAT_ID":48234,"ELEMENT_SET_NO":999,"REV_AT_EPOCH":23433,"BSTAR":0.00037018,"MEAN_MOTION_DOT":1.5e-6,"MEAN_MOTION_DDOT":0},{"OBJECT_NAME":"ONEWEB-0203","OBJECT_ID":"2021-031AB","EPOCH":"2026-03-03T03:26:57.792480","MEAN_MOTION":13.14498729,"ECCENTRICITY":0.0001589,"INCLINATION":87.9006,"RA_OF_ASC_NODE":310.8468,"ARG_OF_PERICENTER":85.3559,"MEAN_ANOMALY":274.7752,"EPHEMERIS_TYPE":0,"CLASSIFICATION_TYPE":"U","NORAD_CAT_ID":48235,"ELEMENT_SET_NO":999,"REV_AT_EPOCH":23434,"BSTAR":0.00072213,"MEAN_MOTION_DOT":2.8e-6,"MEAN_MOTION_DDOT":0}]
