ONEWEB-0183             
1 48219U 21031K   26062.15959267  .00000020  00000+0  20264-4 0  9990
2 48219  87.9000 310.8602 0001626  71.8885 288.2422 13.14501408234398
ONEWEB-0185             
1 48220U 21031L   26062.10963192 -.00000102  00000+0 -31019-3 0  9991
2 48220  87.8998 310.8557 0001930  70.0135 290.1202 13.14500970234314
ONEWEB-0187             
1 48221U 21031M   26062.16579800 -.00000060  00000+0 -19623-3 0  9997
2 48221  87.8990 310.8773 0001906  77.0601 283.0741 13.14501394234337
ONEWEB-0192             
1 48222U 21031N   26062.13580880  .00000318  00000+0  82259-3 0  9994
2 48222  87.8988 310.8722 0001694  83.3393 276.7929 13.14501839234242
ONEWEB-0219             
1 48223U 21031P   26062.11519382  .00000023  00000+0  28349-4 0  9996
2 48223  87.9000 310.8606 0001865  75.0041 285.1296 13.14502549234440
ONEWEB-0202             
1 48224U 21031Q   26062.09617148 -.00000140  00000+0 -41115-3 0  9990
2 48224  87.8998 310.8733 0002167  95.6215 264.5162 13.14504554234423
ONEWEB-0204             
1 48225U 21031R   26062.13026153  .00000282  00000+0  72508-3 0  9991
2 48225  87.9000 310.8604 0001614  69.2427 290.8876 13.14502713234322
ONEWEB-0205             
1 48226U 21031S   26062.10567991 -.00000128  00000+0 -38058-3 0  9992
2 48226  87.9001 310.8577 0001832  76.7590 283.3743 13.14501915234333
ONEWEB-0206             
1 48227U 21031T   26062.15484213  .00000102  00000+0  24188-3 0  9992
2 48227  87.9010 310.8473 0001447  85.9924 274.1371 13.14502350234298
ONEWEB-0182             
1 48228U 21031U   26062.15008033  .00000204  00000+0  51677-3 0  9991
2 48228  87.8997 310.8619 0001585  71.0724 289.0577 13.14501339234504
ONEWEB-0186             
1 48229U 21031V   26062.16118528 -.00000003  00000+0 -42490-4 0  9997
2 48229  87.9003 310.8465 0001763  78.3309 281.8018 13.14501984234450
ONEWEB-0181             
1 48230U 21031W   26062.13898092  .00000347  00000+0  90067-3 0  9998
2 48230  87.8987 310.8935 0001833  81.0877 279.0460 13.14501652234309
ONEWEB-0188             
1 48231U 21031X   26062.10092050 -.00000147  00000+0 -43215-3 0  9999
2 48231  87.8990 310.8989 0001699  78.1639 281.9681 13.14501465234204
ONEWEB-0220             
1 48232U 21031Y   26062.14056694  .00000239  00000+0  61031-3 0  9994
2 48232  87.9004 310.8497 0001837  75.9945 284.1389 13.14501178234475
ONEWEB-0165             
1 48233U 21031Z   26062.16910791 -.00000095  00000+0 -29063-3 0  9995
2 48233  87.9000 310.8609 0001940  86.4592 273.6759 13.14501552234433
ONEWEB-0199             
1 48234U 21031AA  26062.15324887  .00000150  00000+0  37018-3 0  9999
2 48234  87.9001 310.8457 0001503  82.0380 278.0920 13.14501453234336
ONEWEB-0203             
1 48235U 21031AB  26062.14372445  .00000280  00000+0  72213-3 0  9992
2 48235  87.9006 310.8468 0001589  85.3559 274.7752 13.14498729234340
